GSAT0101 (PRN E11)      
1 37846U 11060A   22086.12935666 -.00000094  00000+0  00000+0 0  9994
2 37846  56.9675  23.5742 0004169 358.5216   1.4608  1.70474909 64810
GSAT0102 (PRN E12)      
1 37847U 11060B   22084.88478005 -.00000087  00000+0  00000+0 0  9997
2 37847  56.9679  23.6077 0005197 334.6088  28.1109  1.70475205 64802
GSAT0103 (PRN E19)      
1 38857U 12055A   22082.65007328  .00000020  00000+0  00000+0 0  9999
2 38857  55.1106 144.0573 0004707 260.4713  99.5508  1.70473573 58642
GSAT0104 (PRN E20)      
1 38858U 12055B   22086.13982578  .00000011  00000+0  00000+0 0  9996
2 38858  55.1117 143.9625 0002406 254.5124 105.5314  1.70473842 58816
GSAT0201 (PRN E18)      
1 40128U 14050A   22086.28136591 -.00000082  00000+0  00000+0 0  9997
2 40128  50.3326 335.5566 1630176 121.0693 255.9449  1.85518989 49695
GSAT0202 (PRN E14)      
1 40129U 14050B   22085.46466987 -.00000079  00000+0  00000+0 0  9998
2 40129  50.3593 334.6473 1627282 121.8479 255.0220  1.85519578 51846
GSAT0203 (PRN E26)      
1 40544U 15017A   22085.32378286 -.00000090  00000+0  00000+0 0  9995
2 40544  56.7624  23.6406 0003693 287.1548  72.7906  1.70475522 42882
GSAT0204 (PRN E22)      
1 40545U 15017B   22083.81668583 -.00000082  00000+0  00000+0 0  9991
2 40545  56.7677  23.6940 0002931 275.9077  84.0483  1.70475164  5900
GSAT0205 (PRN E24)      
1 40889U 15045A   22085.93014965  .00000023  00000+0  00000+0 0  9991
2 40889  55.6799 264.2393 0005805  29.8070 330.2088  1.70473417 40704
GSAT0206 (PRN E30)      
1 40890U 15045B   22085.56434389  .00000026  00000+0  00000+0 0  9991
2 40890  55.6791 264.2453 0003978  27.3444 332.6602  1.70473449 40727
GSAT0209 (PRN E09)      
1 41174U 15079A   22085.73946378  .00000010  00000+0  00000+0 0  9992
2 41174  55.1277 143.6751 0004688 300.5104  59.5129  1.70474845 38464
GSAT0208 (PRN E08)      
1 41175U 15079B   22085.37232134  .00000010  00000+0  00000+0 0  9991
2 41175  55.1261 143.6838 0003922 299.0470  60.9826  1.70474864 38878
GSAT0211 (PRN E02)      
1 41549U 16030A   22086.07837600  .00000022  00000+0  00000+0 0  9994
2 41549  55.8236 264.1555 0003843 358.5819   1.3993  1.70474968 36368
GSAT0210 (PRN E01)      
1 41550U 16030B   22084.61131314  .00000032  00000+0  00000+0 0  9994
2 41550  55.8245 264.1972 0002087 336.4720  23.5028  1.70475059 36332
GSAT0207 (PRN E07)      
1 41859U 16069A   22085.44537749  .00000009  00000+0  00000+0 0  9996
2 41859  54.7878 143.8849 0004887 287.8529  72.1624  1.70473520 33088
GSAT0212 (PRN E03)      
1 41860U 16069B   22086.47196117  .00000012  00000+0  00000+0 0  9996
2 41860  54.7856 143.8541 0003404 306.3591  53.6810  1.70473520 33356
GSAT0213 (PRN E04)      
1 41861U 16069C   22085.66425752  .00000009  00000+0  00000+0 0  9993
2 41861  54.7876 143.8817 0004744 268.1545  91.8602  1.70473554 33201
GSAT0214 (PRN E05)      
1 41862U 16069D   22085.81133240  .00000010  00000+0  00000+0 0  9991
2 41862  54.7872 143.8722 0003856 270.7838  89.2414  1.70473654 33337
GSAT0215 (PRN E21)      
1 43055U 17079A   22085.12888864  .00000029  00000+0  00000+0 0  9992
2 43055  55.8001 264.0152 0001507 345.5929  14.3868  1.70474166 26664
GSAT0216 (PRN E25)      
1 43056U 17079B   22086.00775419  .00000023  00000+0  00000+0 0  9996
2 43056  55.7996 263.9908 0002738 310.1432  49.8150  1.70474299 26695
GSAT0217 (PRN E27)      
1 43057U 17079C   22085.64139061  .00000026  00000+0  00000+0 0  9996
2 43057  55.7986 264.0007 0002957 332.1118  27.8555  1.70474215 26676
GSAT0218 (PRN E31)      
1 43058U 17079D   22085.27481363  .00000028  00000+0  00000+0 0  9993
2 43058  55.7982 264.0082 0002975 300.7270  59.2275  1.70474243 26697
GSAT0221 (PRN E15)      
1 43564U 18060A   22086.34612472 -.00000095  00000+0  00000+0 0  9997
2 43564  57.1454  23.4074 0004684 299.6564  60.2803  1.70475340 22861
GSAT0222 (PRN E33)      
1 43565U 18060B   22085.97939013 -.00000093  00000+0  00000+0 0  9997
2 43565  57.1476  23.4176 0004596 308.3322  51.6106  1.70475299 22909
GSAT0219 (PRN E36)      
1 43566U 18060C   22086.19995835 -.00000094  00000+0  00000+0 0  9998
2 43566  57.1482  23.4136 0004301 310.7970  49.1493  1.70475333 22880
GSAT0220 (PRN E13)      
1 43567U 18060D   22085.83343493 -.00000092  00000+0  00000+0 0  9994
2 43567  57.1476  23.4236 0004237 306.0061  53.9392  1.70475135 22861
GSAT0223                
1 49809U 21116A   22083.04311203 -.00000078  00000+0  00000+0 0  9994
2 49809  57.1387  23.3984 0000995 277.6417 259.7774  1.70475231  1821
GSAT0224                
1 49810U 21116B   22084.60906296 -.00000086  00000+0  00000+0 0  9990
2 49810  57.1411  23.3537 0000944 323.2213 207.7431  1.70475204  1879
